satname,norad_id,inclination_deg,eccentricity,mean_motion_rev_per_day,perigee_km,apogee_km,l1,l2
STARLINK-1457,45674,53.0532,0.0001215,15.06412733,546.3311082937389,548.013958510357,1 45674U 20035T   25266.81297868  .00004621  00000+0  32877-3 0  9998,2 45674  53.0532  95.7575 0001215  89.1857 270.9271 15.06412733293555
STARLINK-1458,45675,53.053,0.0001397,15.06420226,546.1821063212774,548.117031388615,1 45675U 20035U   25266.93462987  .00006328  00000+0  44311-3 0  9990,2 45675  53.0530  95.2099 0001397  87.7541 272.3608 15.06420226293562
STARLINK-1460,45676,53.0526,0.0001135,15.06397637,546.4327723190872,548.0048280857345,1 45676U 20035V   25267.23686934  .00003405  00000+0  24738-3 0  9999,2 45676  53.0526  93.8528 0001135  92.1189 267.9930 15.06397637293609
STARLINK-1392,45677,53.0542,0.0001329,15.06414248,546.2475171946417,548.0882632344619,1 45677U 20035W   25266.84984405  .00003116  00000+0  22787-3 0  9991,2 45677  53.0542  95.5923 0001329  94.1804 265.9337 15.06414248293581
STARLINK-1394,45679,53.0535,0.000127,15.06402876,546.3232252791058,548.0822615739362,1 45679U 20035Y   25265.78554112  .00006589  00000+0  46077-3 0  9998,2 45679  53.0535  90.3700 0001270  83.1574 276.9559 15.06402876293568
STARLINK-1402,45685,53.0542,0.0001269,15.06418505,546.2760238241435,548.0336628939876,1 45685U 20035AE  25266.74517523  .00001856  00000+0  14338-3 0  9994,2 45685  53.0542  80.4823 0001269  89.7669 270.3465 15.06418505293799
STARLINK-1404,45686,53.0549,0.0001423,15.06409981,546.1954950328909,548.1664405265219,1 45686U 20035AF  25266.93922701  .00001752  00000+0  13644-3 0  9998,2 45686  53.0549  85.1926 0001423  93.0404 267.0748 15.06409981293740
STARLINK-1413,45689,53.0529,0.0001307,15.06403872,546.2945493358748,548.1048323468603,1 45689U 20035AJ  25266.82496169  .00002393  00000+0  17946-3 0  9994,2 45689  53.0529  85.6987 0001307  89.3793 270.7346 15.06403872293639
STARLINK-1417,45693,53.0541,0.0001476,15.06390958,546.217084967082,548.2614560421353,1 45693U 20035AN  25266.82128819  .00007723  00000+0  53689-3 0  9999,2 45693  53.0541  85.7221 0001476  90.6635 269.4524 15.06390958293719
STARLINK-1420,45695,53.0548,0.000151,15.06394086,546.1839531865871,548.2754139250219,1 45695U 20035AQ  25267.15391186 -.00001134  00000+0 -57263-4 0  9992,2 45695  53.0548  64.2171 0001510  88.7951 271.3212 15.06394086294052
STARLINK-1422,45696,53.0528,0.0001178,15.0640627,546.3765375615649,548.0081451543874,1 45696U 20035AR  25267.23042843  .00003325  00000+0  24198-3 0  9997,2 45696  53.0528  83.8846 0001178  93.2290 266.8834 15.06406270293770
STARLINK-1351,45697,53.0554,0.0001381,15.06415809,546.2067221092784,548.1194899985712,1 45697U 20035AS  25266.74201866  .00001904  00000+0  14659-3 0  9997,2 45697  53.0554  66.0750 0001381  89.3861 270.7286 15.06415809293990
STARLINK-1398,45699,53.0531,0.0003922,15.43722912,432.4609646347444,437.8052937240727,1 45699U 20035AU  25266.64720583  .00048049  00000+0  10499-2 0  9998,2 45699  53.0531  36.9460 0003922 172.3023 187.8043 15.43722912294398
STARLINK-1400,45700,53.0542,0.0001341,15.06420895,546.2188378590081,548.0761991668733,1 45700U 20035AV  25266.71622695  .00005609  00000+0  39492-3 0  9994,2 45700  53.0542  66.1928 0001341  91.3515 268.7628 15.06420895293982
STARLINK-1403,45701,53.053,9.15e-05,15.06425397,546.5000586137257,547.7673831556476,1 45701U 20035AW  25267.14378735  .00001176  00000+0  97734-4 0  9995,2 45701  53.0530  64.2722 0000915  82.4029 277.7064 15.06425397294042
STARLINK-1407,45703,53.0436,0.0008195,15.35262974,454.5355335625927,465.7434687479863,1 45703U 20035AY  25267.33336806  .00141737  00000+0  40122-2 0  9996,2 45703  53.0436  30.3109 0008195 255.3384 214.5140 15.35262974  5872
STARLINK-1411,45706,53.0553,3.54e-05,15.29413215,477.32258278546215,477.807966506507,1 45706U 20035BB  25267.33336806  .00188933  00000+0  63829-2 0  9997,2 45706  53.0553  56.7021 0000354  45.3836   6.9239 15.29413215  5790
STARLINK-1423,45710,53.0549,0.000135,15.06395806,546.2894881834382,548.1593357646707,1 45710U 20035BF  25267.16961207  .00004242  00000+0  30352-3 0  9998,2 45710  53.0549  64.1579 0001350  86.1539 273.9604 15.06395806294052
STARLINK-1433,45711,53.0541,0.0001262,15.06411874,546.3011916821342,548.0491404728509,1 45711U 20035BG  25267.15116337  .00001092  00000+0  92156-4 0  9995,2 45711  53.0541  64.2375 0001262  77.9637 282.1493 15.06411874294040
STARLINK-1434,45712,53.052,0.0002975,15.11669711,529.0520892800942,533.1630898108733,1 45712U 20035BH  25267.16229960  .00060771  00000+0  35183-2 0  9998,2 45712  53.0520  62.2559 0002975 119.5642 240.5646 15.11669711294084
STARLINK-1465,45731,53.0527,0.0001377,15.06418479,546.2013103458867,548.108535741494,1 45731U 20038B   25267.31703941  .00006245  00000+0  43758-3 0  9999,2 45731  53.0527 263.4941 0001377  82.1577 277.9568 15.06418479291114
STARLINK-1471,45735,53.0521,0.000343,15.38425127,448.42349285182627,453.10812017709486,1 45735U 20038F   25267.23487290  .00040139  00000+0  10481-2 0  9996,2 45735  53.0521 212.9607 0003430  63.6750 296.4605 15.38425127291828
STARLINK-1474,45738,53.04,0.0006457,15.60717505,381.21597254368953,389.95064094782083,1 45738U 20038J   25267.00989586  .00081418  00000+0  95790-3 0  9991,2 45738  53.0400 177.8636 0006457 124.5399 235.6224 15.60717505292299
STARLINK-1475,45739,53.0528,0.0008342,15.60244103,381.3079451863814,392.5948186427677,1 45739U 20038K   25267.33336806  .00121869  00000+0  14489-2 0  9999,2 45739  53.0528 143.9898 0008342  96.3770  25.8489 15.60244103  5685
STARLINK-1480,45741,53.0542,0.0001546,15.06410812,546.1077671496141,548.2490746777603,1 45741U 20038M   25267.23225639  .00000513  00000+0  53348-4 0  9993,2 45741  53.0542 263.8798 0001546  98.3369 261.7796 15.06410812291119
STARLINK-1500,45744,53.0376,0.000558,15.2542722,485.6707306510225,493.3350167500721,1 45744U 20038Q   25267.18033942  .00035224  00000+0  13818-2 0  9997,2 45744  53.0376 248.2316 0005580  77.5466 282.6155 15.25427220291325
STARLINK-1504,45746,53.0293,0.0006509,15.35238733,455.76040294896666,464.6625650054075,1 45746U 20038S   25266.28568982  .00047140  00000+0  13600-2 0  9995,2 45746  53.0293 220.0172 0006509  47.7948 312.3604 15.35238733291633
STARLINK-1506,45747,53.055,0.0004822,15.19774145,503.2028367105413,509.8424024476626,1 45747U 20038T   25267.18812119  .00011364  00000+0  53842-3 0  9992,2 45747  53.0550 249.0836 0004822  99.5470 260.6069 15.19774145291318
